{
  "type": "FeatureCollection",
  "features": [
    {
      "type": "Feature",
      "properties": {
        "id": "1",
        "name": "La Força Vella",
        "url": "sense url",
        "img": "laforca.jpg",
        "direccio": "c/Força",
        "telf": "sense telf",
        "email": "sense email"
      },
      "geometry": {
        "type": "Point",
        "coordinates": [
          2.8252,
          41.9864
        ]
      }
    },
    {
      "type": "Feature",
      "properties": {
        "id": "2",
        "name": "La Catedral",
        "url": "https://www.catedraldegirona.cat/",
        "img": "catedral.jpg",
        "direccio": "Plaça de la Catedral",
        "telf": "972 427 189",
        "email": "sense email"
      },
      "geometry": {
        "type": "Point",
        "coordinates": [
          2.8258500365429233,
          41.98745214450556
        ]
      }
    },
    {
      "type": "Feature",
      "properties": {
        "id": "3",
        "name": "Sant Pere Galligants",
        "url": "https://www.patrimoni.gencat.cat/es/coleccion/monasterio-de-sant-pere-de-galligants",
        "img": "stperegalligants.jpg",
        "direccio": "Carrer de Santa Llúcia, 8",
        "telf": "972 202 632",
        "email": "sense email"
      },
      "geometry": {
        "type": "Point",
        "coordinates": [
          2.826576307707286,
          41.98887748843566
        ]
      }
    },
    {
      "type": "Feature",
      "properties": {
        "id": "4",
        "name": "Banys Àrabs",
        "url": "https://www.banysarabs.cat/",
        "img": "banys.jpg",
        "direccio": "Ferran el Catòlic, s/n",
        "telf": "972 19 09 69",
        "email": "sense email"
      },
      "geometry": {
        "type": "Point",
        "coordinates": [
          2.825781546064811,
          41.988314889333815
        ]
      }
    },
    {
      "type": "Feature",
      "properties": {
        "id": "5",
        "name": "Basílica de Sant Feliu",
        "url": "https://www.catedraldegirona.cat/visita-cultural-basilica/",
        "img": "stfeliu.jpg",
        "direccio": "Pujada de Sant Feliu, 29",
        "telf": "972201407",
        "email": "sense email"
      },
      "geometry": {
        "type": "Point",
        "coordinates": [
          2.8240991541,
          41.9831768779
        ]
      }
    },
    {
      "type": "Feature",
      "properties": {
        "id": "6",
        "name": "El Call Jueu",
        "url": "sense web",
        "img": "elcall.jpg",
        "direccio": "c/de la Força",
        "telf": "sense telf",
        "email": "sense email"
      },
      "geometry": {
        "type": "Point",
        "coordinates": [
          2.8214,
          41.9876
        ]
      }
    },
    {
      "type": "Feature",
      "properties": {
        "id": "7",
        "name": "Vall y monestir de Sant Daniel",
        "url": "https://www.santdaniel.com/",
        "img": "stdaniel.jpg",
        "direccio": "C/de les Monges 2",
        "telf": "638 97 72 56",
        "email": "sense email"
      },
      "geometry": {
        "type": "Point",
        "coordinates": [
          2.8336413365430366,
          41.98869120846312
        ]
      }
    },
    {
      "type": "Feature",
      "properties": {
        "id": "8",
        "name": "La Muralla",
        "url": "sense url",
        "img": "lamuralla.jpg",
        "direccio": "Passeig de la Muralla",
        "telf": "sense telef",
        "email": "sense email"
      },
      "geometry": {
        "type": "Point",
        "coordinates": [
          2.8249,
          41.9898
        ]
      }
    },
    {
      "type": "Feature",
      "properties": {
        "id": "9",
        "name": "Las cases del Oñar",
        "url": "sense url",
        "img": "",
        "direccio": "sense direcció",
        "telf": "sense telefon",
        "email": "sense email"
      },
      "geometry": {
        "type": "Point",
        "coordinates": [
          2.8249,
          41.9856
        ]
      }
    }
  ]
}
