{
  "type": "FeatureCollection",
  "features": [
    {
      "type": "Feature",
      "properties": {
        "id": "1",
        "name": "Alemanys 5",
        "url": "www.alemanys5.com",
        "img": "",
        "direccio": "C/ Alemanys, 5. 17004 Girona.",
        "telf": "No hi ha telf",
        "email": "mribera@gmail.com"
      },
      "geometry": {
        "type": "Point",
        "coordinates": [
          2.82686,
          41.98632
        ]
      }
    },
    {
      "type": "Feature",
      "properties": {
        "id": "2",
        "name": "Apartament AG Girona",
        "url": "no té web",
        "img": "",
        "direccio": "C. Olivera, 24 Baixos. 17004 Girona.",
        "telf": "972 490 276 / 626 396 322",
        "email": "cancarrerasmas@hotmail.com"
      },
      "geometry": {
        "type": "Point",
        "coordinates": [
          2.82674,
          41.97559
        ]
      }
    },
    {
      "type": "Feature",
      "properties": {
        "id": "3",
        "name": "Apartament Ballesteries 19",
        "url": "no té web",
        "img": "",
        "direccio": "Carrer Ballesteries, 19. 17004 Girona.",
        "telf": "666 029 269 / 675 393 332",
        "email": "ballesteries19@gmail.com"
      },
      "geometry": {
        "type": "Point",
        "coordinates": [
          2.82479,
          41.98581
        ]
      }
    },
    {
      "type": "Feature",
      "properties": {
        "id": "4",
        "name": "Apartament Carme 38",
        "url": "https://www.airbnb.es/users/123616347/listings",
        "img": "",
        "direccio": "Carrer del Carme, 38. 17004 Girona.",
        "telf": "609 381 066 / 972 411 421",
        "email": "xnadal@sgelectronics.es"
      },
      "geometry": {
        "type": "Point",
        "coordinates": [
          2.82708,
          41.97444
        ]
      }
    },
    {
      "type": "Feature",
      "properties": {
        "id": "5",
        "name": "Apartament Centre Rei Martí",
        "url": "no té web",
        "img": "",
        "direccio": "Pujada del Rei Martí, 8-12, baixos 1a.. 17004 Girona.",
        "telf": "649 573 518",
        "email": "info@littlehomegirona.com"
      },
      "geometry": {
        "type": "Point",
        "coordinates": [
          2.8254,
          41.98861
        ]
      }
    },
    {
      "type": "Feature",
      "properties": {
        "id": "6",
        "name": "Apartament Centre Torre Girona",
        "url": "no té web",
        "img": "",
        "direccio": "C/ Santa Eugènia, 11 10è 1a. 17005 Girona.",
        "telf": "660 432 136",
        "email": "apartamenttorregirona@gmail.com"
      },
      "geometry": {
        "type": "Point",
        "coordinates": [
          2.81692,
          41.98123
        ]
      }
    },
    {
      "type": "Feature",
      "properties": {
        "id": "7",
        "name": "Apartament La Força 8",
        "url": "no té web",
        "img": "",
        "direccio": "C. La Força 8, 2n pis. 17001 Girona.",
        "telf": "",
        "email": "info@apartamentgirona.com"
      },
      "geometry": {
        "type": "Point",
        "coordinates": [
          2.82528,
          41.986
        ]
      }
    },
    {
      "type": "Feature",
      "properties": {
        "id": "8",
        "name": "Apartament Margarit",
        "url": "no té web",
        "img": "",
        "direccio": "C. Migdia, 25, bl.C, 1r 3ª. 17002 Girona.",
        "telf": "87 099 417",
        "email": "silxat@gmail.com"
      },
      "geometry": {
        "type": "Point",
        "coordinates": [
          2.82066,
          41.97629
        ]
      }
    },
    {
      "type": "Feature",
      "properties": {
        "id": "9",
        "name": "Apartament Pou Rodó",
        "url": "no té web",
        "img": "",
        "direccio": "C/ Pou Rodó, 7-9. 17004 Girona",
        "telf": "972 590 389",
        "email": "smartib@ya.com"
      },
      "geometry": {
        "type": "Point",
        "coordinates": [
          2.82487,
          41.98872
        ]
      }
    },
    {
      "type": "Feature",
      "properties": {
        "id": "10",
        "name": "Apartament Priçosa",
        "url": "no té web",
        "img": "",
        "direccio": "C. Força 23, 1r 3a. 17004 Girona.",
        "telf": "660 924 039 / 677 321 312",
        "email": "pricosagirona@gmail.com"
      },
      "geometry": {
        "type": "Point",
        "coordinates": [
          2.82514,
          41.98646
        ]
      }
    },
    {
      "type": "Feature",
      "properties": {
        "id": "11",
        "name": "Apartament Universal Flat",
        "url": "www.apartmentrentgirona.com",
        "img": "",
        "direccio": "Rambla de la Llibertat, 7, 1-1. 17004 Girona.",
        "telf": "699 236 277",
        "email": "apartmentrentgirona@gmail.com"
      },
      "geometry": {
        "type": "Point",
        "coordinates": [
          2.8239,
          41.98366
        ]
      }
    },
    {
      "type": "Feature",
      "properties": {
        "id": "12",
        "name": "Apartaments Girona Centre",
        "url": "www.gironacentre.com",
        "img": "648 982 866",
        "direccio": "Rambla Llibertat, 43. 17004 Girona.",
        "telf": "",
        "email": "nfo@gironacentre.com"
      },
      "geometry": {
        "type": "Point",
        "coordinates": [
          2.82429,
          41.98456
        ]
      }
    },
    {
      "type": "Feature",
      "properties": {
        "id": "13",
        "name": "Apartaments Livingirona ",
        "url": "www.livingirona.com",
        "img": "",
        "direccio": "C/ Francesc Mateu, 2 . 17007 Girona.",
        "telf": "649 424 949",
        "email": ""
      },
      "geometry": {
        "type": "Point",
        "coordinates": [
          2.83471,
          41.99528
        ]
      }
    },
    {
      "type": "Feature",
      "properties": {
        "id": "14",
        "name": "Apartaments Pau Casals",
        "url": "no té página web",
        "img": "",
        "direccio": "Pau Casals, 32. 17001 Girona.",
        "telf": "972 224 880 / 661 279 445",
        "email": "carmina.sojo@gmail.com"
      },
      "geometry": {
        "type": "Point",
        "coordinates": [
          2.81221,
          41.98291
        ]
      }
    },
    {
      "type": "Feature",
      "properties": {
        "id": "15",
        "name": "Apartaments RC Girona",
        "url": "www.rasetciutadans.com",
        "img": "",
        "direccio": "Carrer de la Llebre, 3. 17004 Girona.",
        "telf": "661909990",
        "email": "admin@rasetciutadans.com"
      },
      "geometry": {
        "type": "Point",
        "coordinates": [
          2.82573,
          41.98409
        ]
      }
    },
    {
      "type": "Feature",
      "properties": {
        "id": "16",
        "name": "Apartment Rentals Girona",
        "url": "https://sites.google.com/view/apartmentrentalsgirona/home",
        "img": "",
        "direccio": "Carrer del Carme, 19. 17004 girona.",
        "telf": "682 806 871",
        "email": "info@apartmentrentalsgirona.com"
      },
      "geometry": {
        "type": "Point",
        "coordinates": [
          2.8240991541,
          41.9831768779
        ]
      }
    },
    {
      "type": "Feature",
      "properties": {
        "id": "17",
        "name": "B&B Plaça Bell-Lloc",
        "url": "no té url",
        "img": "",
        "direccio": "Plaça Bell-Lloc, 4. 17002 Girona.",
        "telf": "629 374 132",
        "email": "no té email"
      },
      "geometry": {
        "type": "Point",
        "coordinates": [
          2.82455,
          41.98025
        ]
      }
    },
    {
      "type": "Feature",
      "properties": {
        "id": "18",
        "name": "B&B Plaça Bell-Lloc",
        "url": "no té página web",
        "img": "",
        "direccio": "Plaça Bell-Lloc, 4. 17002 Girona.",
        "telf": "629 374 132",
        "email": "no té email"
      },
      "geometry": {
        "type": "Point",
        "coordinates": [
          2.82471,
          41.98252
        ]
      }
    },
    {
      "type": "Feature",
      "properties": {
        "id": "19",
        "name": "Bravissimo apartaments",
        "url": "https://bravissimo-girona.com/ca/",
        "img": "",
        "direccio": "Plaça de Catalunya, 16. 17004 Girona.",
        "telf": "872 220 440",
        "email": "hello@bravissimo-girona.com"
      },
      "geometry": {
        "type": "Point",
        "coordinates": [
          2.82404,
          41.98118
        ]
      }
    },
    {
      "type": "Feature",
      "properties": {
        "id": "20",
        "name": "Can Feliu",
        "url": "no té web",
        "img": "",
        "direccio": "C/ de les monges, 23. 17007 Girona.",
        "telf": "(+34) 689 470 912",
        "email": "mickjcampbell@yahoo.es"
      },
      "geometry": {
        "type": "Point",
        "coordinates": [
          2.82471,
          41.98252
        ]
      }
    },
    {
      "type": "Feature",
      "properties": {
        "id": "21",
        "name": "Casa amb jardí al costat del Barri Vell",
        "url": "no té web",
        "img": "",
        "direccio": "Carrer de la Muralla, 3. 17004 Girona",
        "telf": "610633427 / 618446958",
        "email": "reserves@rimarent.com"
      },
      "geometry": {
        "type": "Point",
        "coordinates": [
          2.82964,
          41.98622
        ]
      }
    },
    {
      "type": "Feature",
      "properties": {
        "id": "22",
        "name": "Del Vi Apartaments",
        "url": "www.delviapartments.com",
        "img": "",
        "direccio": "Plaça del Vi, 9. 17004 Girona.",
        "telf": "972 483 038",
        "email": "info@delviapartaments.com"
      },
      "geometry": {
        "type": "Point",
        "coordinates": [
          2.82446,
          41.98314
        ]
      }
    },
    {
      "type": "Feature",
      "properties": {
        "id": "23",
        "name": "Dormir Sleep apartment Girona",
        "url": "no té web",
        "img": "",
        "direccio": "C. Joaquim Botet i Sisó, núm. 7, 2n 1a. 17003 Girona.",
        "telf": "626 401 163 / 666 718 008",
        "email": "miriam.montes.guidux@gmail.com / bernagual@gmail.com"
      },
      "geometry": {
        "type": "Point",
        "coordinates": [
          2.82562,
          41.97245
        ]
      }
    },
    {
      "type": "Feature",
      "properties": {
        "id": "24",
        "name": "El Reientinc Apartament Rural",
        "url": "www.gironaapartments.cat",
        "img": "",
        "direccio": "C/ Carme Auguet, 5. 17007 Girona.",
        "telf": "608 491 770",
        "email": "reientinc@gmail.com"
      },
      "geometry": {
        "type": "Point",
        "coordinates": [
          2.8377730845,
          41.9891953992
        ]
      }
    },
    {
      "type": "Feature",
      "properties": {
        "id": "25",
        "name": "Girona Central Suites",
        "url": "no té url",
        "img": "",
        "direccio": "Plaça Marquès de Camps 8. 17001 Girona.",
        "telf": "695 097 612",
        "email": "bookings@girona-accommodation.com"
      },
      "geometry": {
        "type": "Point",
        "coordinates": [
          2.81871,
          41.98196
        ]
      }
    },
    {
      "type": "Feature",
      "properties": {
        "id": "26",
        "name": "Girona Housing ",
        "url": "no té web",
        "img": "",
        "direccio": "C/ Ginesta 9. 17002 Girona.",
        "telf": "677705585",
        "email": "gironahousing@gmail.com"
      },
      "geometry": {
        "type": "Point",
        "coordinates": [
          2.82241,
          41.98171
        ]
      }
    },
    {
      "type": "Feature",
      "properties": {
        "id": "27",
        "name": "Girona Riverside",
        "url": "no té web",
        "img": "",
        "direccio": "C/ Ballesteries, 23. 17004 Girona.",
        "telf": "655 341 258",
        "email": "no té email"
      },
      "geometry": {
        "type": "Point",
        "coordinates": [
          2.82479,
          41.98589
        ]
      }
    },
    {
      "type": "Feature",
      "properties": {
        "id": "28",
        "name": "Girorooms",
        "url": "no té web",
        "img": "",
        "direccio": "C/ Bellaire, 9-11, 1-2. 17004 Girona.",
        "telf": "972 825 180 / 680 703 992",
        "email": "nfo@girorooms.com"
      },
      "geometry": {
        "type": "Point",
        "coordinates": [
          2.8247224295,
          41.9892213224
        ]
      }
    },
    {
      "type": "Feature",
      "properties": {
        "id": "29",
        "name": "Hap-Dreams",
        "url": "https://www.sistachrentals.com/en",
        "img": "",
        "direccio": "C/ Portal Nou, 28 . 17004 Girona.",
        "telf": "972 203 525",
        "email": "dreams@grn.es"
      },
      "geometry": {
        "type": "Point",
        "coordinates": [
          2.8271505764,
          41.9841722329
        ]
      }
    },
    {
      "type": "Feature",
      "properties": {
        "id": "30",
        "name": "Històric",
        "url": "https://hotelhistoric.com/",
        "img": "",
        "direccio": "C/ Bellmirall, 4 . 17004 Girona.",
        "telf": "972 223 583",
        "email": "info@hotelhistoric.com"
      },
      "geometry": {
        "type": "Point",
        "coordinates": [
           2.8265662158,
          41.9859907083
        ]
      }
    },
    {
      "type": "Feature",
      "properties": {
        "id": "31",
        "name": "Homely Girona Apartment",
        "url": "no té página web",
        "img": "",
        "direccio": "Ronda Sant Antoni Maria Claret, 26, 2-1. 17002 Girona.",
        "telf": "687 731 230",
        "email":"homelygirona@gmail.com"
      },
      "geometry": {
        "type": "Point",
        "coordinates": [
         2.821,
        41.97944
        ]
      }
    },
    {
      "type": "Feature",
      "properties": {
        "id": "32",
        "name": "Sant Francesc 18",
        "url": "no té página web",
        "img": "",
        "direccio": "Av. Sant Francesc, 18. 17001 Girona.",
        "telf": "607117543",
        "email": "santfrancesc18@gmail.com"
      },
      "geometry": {
        "type": "Point",
        "coordinates": [
          2.82181,
          41.98252
        ]
      }
    },
    {
      "type": "Feature",
      "properties": {
        "id": "33",
        "name": "Sleep & Stay",
        "url": "www.sleepandstay.com/",
        "img": "",
        "direccio": "C/ Bonaventura Carreras i Peralta, 2. 17004 Girona.",
        "telf": "615 664 510",
        "email": "info@sleepandstay.com"
      },
      "geometry": {
        "type": "Point",
        "coordinates": [
          2.82572,
          41.98486
        ]
      }
    },
    {
      "type": "Feature",
      "properties": {
        "id": "34",
        "name": "Sleep in Girona Apartment",
        "url": "www.sleepingirona.com",
        "img": "",
        "direccio": "C/ Ciutadans, 13, 2on. 17004 Girona.",
        "telf": "972 223 583",
        "email": "info@sleepingirona.com"
      },
      "geometry": {
        "type": "Point",
        "coordinates": [
          2.8254001313,
          41.9841876073
        ]
      }
    },
    {
      "type": "Feature",
      "properties": {
        "id": "35",
        "name": "StayinGirona",
        "url": "www.stayingirona.com/",
        "img": "",
        "direccio": "C/ Carme, 73. 17003 Girona.",
        "telf": "680299397",
        "email": "hello@stayingirona.com"
      },
      "geometry": {
        "type": "Point",
        "coordinates": [
         2.82459,
        41.97825
        ]
      }
    }
  ]
}
