{
  "type": "FeatureCollection",
  "features": [
    {
      "type": "Feature",
      "properties": {
        "id": "1",
        "name": "Bagels & Beers",
        "url": "https://bagelsandbeers.com/",
        "img": "assets/salmon-bagel.jpg",
        "direccio": "Passeig de José Canalejas, 1",
        "telf": "972 666 069",
        "email": "bagelsandbeersgirona@gmail.com"
      },
      "geometry": {
        "type": "Point",
        "coordinates": [
          2.823516,
          41.987407
        ]
      }
    },
    {
      "type": "Feature",
      "properties": {
        "id": "2",
        "name": "Bar Cacao",
        "url": "https://casacacaogirona.com/ca/bar-cacao",
        "img": "assets/barcacao.jpg",
        "direccio": "Plaça Catalunya, 23",
        "telf": "972 905 905",
        "email": "info@casacacaogirona.com"
      },
      "geometry": {
        "type": "Point",
        "coordinates": [
          2.822897923049712,
          41.981788603264924
        ]
      }
    },
    {
      "type": "Feature",
      "properties": {
        "id": "3",
        "name": "Bar Núria",
        "url": "https://barnuria.shop/",
        "img": "",
        "direccio": "Poeta Marquina, Pl. 12",
        "telf": "972 217 519",
        "email": "barnuria.shop@gmail.com"
      },
      "geometry": {
        "type": "Point",
        "coordinates": [
          2.8184619230496524,
          41.98110990862622
        ]
      }
    },
    {
      "type": "Feature",
      "properties": {
        "id": "3",
        "name": "Café Royal",
        "url": "https://www.instagram.com/caferoyal.girona/",
        "img": "assets/royal.jpg",
        "direccio": "Plaça Independència, 1",
        "telf": "972 217 459",
        "email": ""
      },
      "geometry": {
        "type": "Point",
        "coordinates": [
          2.8233582365427417,
          41.98562264393991
        ]
      }
    },
    {
      "type": "Feature",
      "properties": {
        "id": "4",
        "name": "Cafè L'arc",
        "url": "https://www.facebook.com/CafeLarc?ref=hl",
        "img": "assets/larc.jpg",
        "direccio": "Plaça de la Catedral, 9",
        "telf": "972 203 087",
        "email": ""
      },
      "geometry": {
        "type": "Point",
        "coordinates": [
          2.825183509557417,
          41.98734869003165
        ]
      }
    },
    {
      "type": "Feature",
      "properties": {
        "id": "4",
        "name": "",
        "url": "",
        "img": "",
        "direccio": "",
        "telf": "",
        "email": ""
      },
      "geometry": {
        "type": "Point",
        "coordinates": [
          2.82686,
          41.98632
        ]
      }
    },
    {
      "type": "Feature",
      "properties": {
        "id": "1",
        "name": "",
        "url": "",
        "img": "",
        "direccio": "",
        "telf": "",
        "email": ""
      },
      "geometry": {
        "type": "Point",
        "coordinates": [
          2.82686,
          41.98632
        ]
      }
    },
    {
      "type": "Feature",
      "properties": {
        "id": "1",
        "name": "",
        "url": "",
        "img": "",
        "direccio": "",
        "telf": "",
        "email": ""
      },
      "geometry": {
        "type": "Point",
        "coordinates": [
          2.82686,
          41.98632
        ]
      }
    },
    {
      "type": "Feature",
      "properties": {
        "id": "1",
        "name": "",
        "url": "",
        "img": "",
        "direccio": "",
        "telf": "",
        "email": ""
      },
      "geometry": {
        "type": "Point",
        "coordinates": [
          2.82686,
          41.98632
        ]
      }
    },
    {
      "type": "Feature",
      "properties": {
        "id": "1",
        "name": "",
        "url": "",
        "img": "",
        "direccio": "",
        "telf": "",
        "email": ""
      },
      "geometry": {
        "type": "Point",
        "coordinates": [
          2.82686,
          41.98632
        ]
      }
    },
    {
      "type": "Feature",
      "properties": {
        "id": "1",
        "name": "",
        "url": "",
        "img": "",
        "direccio": "",
        "telf": "",
        "email": ""
      },
      "geometry": {
        "type": "Point",
        "coordinates": [
          2.82686,
          41.98632
        ]
      }
    },
    {
      "type": "Feature",
      "properties": {
        "id": "1",
        "name": "",
        "url": "",
        "img": "",
        "direccio": "",
        "telf": "",
        "email": ""
      },
      "geometry": {
        "type": "Point",
        "coordinates": [
          2.82686,
          41.98632
        ]
      }
    },
    {
      "type": "Feature",
      "properties": {
        "id": "1",
        "name": "",
        "url": "",
        "img": "",
        "direccio": "",
        "telf": "",
        "email": ""
      },
      "geometry": {
        "type": "Point",
        "coordinates": [
          2.82686,
          41.98632
        ]
      }
    },
    {
      "type": "Feature",
      "properties": {
        "id": "1",
        "name": "",
        "url": "",
        "img": "",
        "direccio": "",
        "telf": "",
        "email": ""
      },
      "geometry": {
        "type": "Point",
        "coordinates": [
          2.82686,
          41.98632
        ]
      }
    },
    {
      "type": "Feature",
      "properties": {
        "id": "1",
        "name": "",
        "url": "",
        "img": "",
        "direccio": "",
        "telf": "",
        "email": ""
      },
      "geometry": {
        "type": "Point",
        "coordinates": [
          2.82686,
          41.98632
        ]
      }
    },
    {
      "type": "Feature",
      "properties": {
        "id": "1",
        "name": "",
        "url": "",
        "img": "",
        "direccio": "",
        "telf": "",
        "email": ""
      },
      "geometry": {
        "type": "Point",
        "coordinates": [
          2.82686,
          41.98632
        ]
      }
    },
    {
      "type": "Feature",
      "properties": {
        "id": "1",
        "name": "",
        "url": "",
        "img": "",
        "direccio": "",
        "telf": "",
        "email": ""
      },
      "geometry": {
        "type": "Point",
        "coordinates": [
          2.82686,
          41.98632
        ]
      }
    },
    {
      "type": "Feature",
      "properties": {
        "id": "1",
        "name": "",
        "url": "",
        "img": "",
        "direccio": "",
        "telf": "",
        "email": ""
      },
      "geometry": {
        "type": "Point",
        "coordinates": [
          2.82686,
          41.98632
        ]
      }
    },
    {
      "type": "Feature",
      "properties": {
        "id": "1",
        "name": "",
        "url": "",
        "img": "",
        "direccio": "",
        "telf": "",
        "email": ""
      },
      "geometry": {
        "type": "Point",
        "coordinates": [
          2.82686,
          41.98632
        ]
      }
    },
    {
      "type": "Feature",
      "properties": {
        "id": "1",
        "name": "",
        "url": "",
        "img": "",
        "direccio": "",
        "telf": "",
        "email": ""
      },
      "geometry": {
        "type": "Point",
        "coordinates": [
          2.82686,
          41.98632
        ]
      }
    }
  ]
}
