{
  "type": "FeatureCollection",
  "features": [
    {
      "type": "Feature",
      "properties": {
        "id": "1",
        "name": "Bells Oficis B&B",
        "url": "www.bellsoficis.com",
        "img": "assets/bellsoficis.jpg",
        "direccio": "Germans Busquets, 2, 2on (Rambla Llibertat). 17004 Girona.",
        "telf": "679460457",
        "email": "info@bellsoficis.com"

      },
      "geometry": {
        "type": "Point",
        "coordinates": [
        2.8240991541,
        41.9831768779
        ]
      }
    },

     {
      "type": "Feature",
      "properties": {
        "id": "2",
        "name": "Pensió Ibis Budget Girona Costa Brava",
        "url": "www.accorhotels.com/es/hotel-6815-ibis-budget-girona-costa-brava/index.shtml",
        "img": "assets/ibisbudget.jpg",
        "direccio": "C/ Francesc Ferrer, 16-18 . 17006 Girona.",
        "telf": "972 110 846",
        "email": "h6815@accor.com"

      },
      "geometry": {
        "type": "Point",
        "coordinates": [
          2.81762,
          41.9982
        ]
      }
    },

     {
      "type": "Feature",
      "properties": {
        "id": "3",
        "name": "Pensió Viladomat",
        "url": "www.pensioviladomat.cat",
        "img": "assets/viladomat.jpg",
        "direccio": "C/ Ciutadans, 5 . 17004 Girona.",
        "telf": "972 203 176",
        "email": "info@pensioviladomat.com"

      },
      "geometry": {
        "type": "Point",
        "coordinates": [
         2.82509,
         41.98371
        ]
      }
    },
     {
      "type": "Feature",
      "properties": {
        "id": "3",
        "name": "Alhambra",
        "url": "hostel-alhambra-girona.com/",
        "img": "assets/alhambra.jpg",
        "direccio": "Bassegoda, 18. 17006 Girona.",
        "telf": "649 945 131",
        "email": "nfo@hostel-alhambra-girona.com"

      },
      "geometry": {
        "type": "Point",
        "coordinates": [
          2.80468,
         41.97585
        ]
      }
    },
     {
      "type": "Feature",
      "properties": {
        "id": "4",
        "name": "Bed & Breakfast 10 Girona",
        "url": "bedandbreakfastgirona.com/",
        "img": "assets/breakfast10.jpg",
        "direccio": "C/ Saragossa, 10. 17003 Girona.",
        "telf": "972 665 637",
        "email": "h10girona@gmail.com"

      },
      "geometry": {
        "type": "Point",
        "coordinates": [
           2.81584,
          41.97171
        ]
      }
    },
     {
      "type": "Feature",
      "properties": {
        "id": "5",
        "name": "Bellmirall Pensió",
        "url": "www.bellmirall.cat",
        "img": "assets/bellmirall1.jpg",
        "direccio": "C/ Bellmirall, 3. 17004 Girona.",
        "telf": "972 204 009",
        "email": "reserves@bellmirall.cat"

      },
      "geometry": {
        "type": "Point",
        "coordinates": [
          2.8137910846,
          2.82638
        ]
      }
    },

     {
      "type": "Feature",
      "properties": {
        "id": "6",
        "name": "Casa Cúndaro",
        "url": "www.casacundaro.com",
        "img": "assets/cundaro.jpg",
        "direccio": "Pujada de la Catedral, 7. 17004 Girona.",
        "telf": "972 223 583",
        "email": "info@casacundaro.com"

      },
      "geometry": {
        "type": "Point",
        "coordinates": [
          2.8256104677,
          41.9867458285
        ]
      }
    },

     {
      "type": "Feature",
      "properties": {
        "id": "6",
        "name": "El Porxo B&B",
        "url": "https://www.elporxobb.com",
        "img": "assets/elporxo.jpg",
        "direccio": "Pujada de la Creu de Palau, 54. 17003 Girona.",
        "telf": "+34 655 497 031",
        "email": "reservations@elporxobb.com"

      },
      "geometry": {
        "type": "Point",
        "coordinates": [
          2.81972,
         41.96142
        ]
      }
    },
       {
      "type": "Feature",
      "properties": {
        "id": "7",
        "name": "Hostal Milana",
        "url": "https://milanagirona.com",
        "img": "assets/milana.jpg",
        "direccio": "Plaça de Sant Pere, 8. 17007 Girona.",
        "telf": "625 049 142",
        "email": "info@milanagirona.com"

      },
      "geometry": {
        "type": "Point",
        "coordinates": [
         2.8255,
        41.9898
        ]
      }
    },

     {
      "type": "Feature",
      "properties": {
        "id": "8",
        "name": "La 19",
        "url": "https://www.la19girona.com/",
        "img": "assets/la19.jpg",
        "direccio": "Carrer mare de Déu del Mont, 19. 17005 Girona",
        "telf": "693 005 090",
        "email": "la19girona@gmail.com"

      },
      "geometry": {
        "type": "Point",
        "coordinates": [
         2.81029,
         41.9742
        ]
      }
    },

     {
      "type": "Feature",
      "properties": {
        "id": "9",
        "name": "Montjuïc B&B",
        "url": "www.montjuicbb.com",
        "img": "assets/monjuic.jpg",
        "direccio": "C/ Onze de setembre 1. 17007 Girona.",
        "telf": "(+34) 972 427 771 / (+34) 606 998 955",
        "email": "reserva@montjuicbb.com"

      },
      "geometry": {
        "type": "Point",
        "coordinates": [
          2.82886,
         41.99316
        ]
      }
    },
     {
      "type": "Feature",
      "properties": {
        "id": "10",
        "name": "Pensió Borràs",
        "url": "https://pensionborras.com",
        "img": "assets/borras.jpg",
        "direccio": "Travessia Auriga, 6. Girona.",
        "telf": "656 891 029",
        "email": "recepcion@pensionborras.com"

      },
      "geometry": {
        "type": "Point",
        "coordinates": [
          2.8252,
          41.9822
        ]
      }
    }
  ]
  }
